{
  "type": "FeatureCollection",
  "features": [
    {
      "type": "Feature",
      "properties": {
        "norad_id": 66523,
        "name": "STARLINK-35969",
        "group": "last-30-days",
        "lat": 26.84257279766167,
        "lon": 135.91680064851244,
        "alt_km": 344.1325241799168,
        "timestamp": "2025-12-04T10:51:48.876381+00:00",
        "meta_object_name": "STARLINK-35969",
        "meta_object_id": "2025-265H",
        "meta_epoch": "2025-12-04T04:00:03.000096",
        "meta_mean_motion": 15.75124283,
        "meta_eccentricity": 9.29e-05,
        "meta_inclination": 42.9999,
        "meta_ra_of_asc_node": 104.7564,
        "meta_arg_of_pericenter": 252.9986,
        "meta_mean_anomaly": 325.7105,
        "meta_ephemeris_type": 0,
        "meta_classification_type": "U",
        "meta_norad_cat_id": 66523,
        "meta_element_set_no": 999,
        "meta_rev_at_epoch": 361,
        "meta_bstar": -0.013696,
        "meta_mean_motion_dot": -0.01844483,
        "meta_mean_motion_ddot": 0,
        "tle_line1": "1 66523U 25265H   25338.16670139 -.01844483  00000+0 -13696-1 0  9995",
        "tle_line2": "2 66523  42.9999 104.7564 0000929 252.9986 325.7105 15.75124283  3615"
      },
      "geometry": {
        "type": "Point",
        "coordinates": [
          135.91680064851244,
          26.84257279766167
        ]
      }
    },
    {
      "type": "Feature",
      "properties": {
        "norad_id": 66524,
        "name": "STARLINK-35687",
        "group": "last-30-days",
        "lat": 27.936820781547286,
        "lon": 137.70407195518126,
        "alt_km": 343.9186452062286,
        "timestamp": "2025-12-04T10:51:48.876391+00:00",
        "meta_object_name": "STARLINK-35687",
        "meta_object_id": "2025-265J",
        "meta_epoch": "2025-12-04T04:00:03.000096",
        "meta_mean_motion": 15.75126964,
        "meta_eccentricity": 0.0001339,
        "meta_inclination": 42.9999,
        "meta_ra_of_asc_node": 104.7512,
        "meta_arg_of_pericenter": 266.5024,
        "meta_mean_anomaly": 314.1266,
        "meta_ephemeris_type": 0,
        "meta_classification_type": "U",
        "meta_norad_cat_id": 66524,
        "meta_element_set_no": 999,
        "meta_rev_at_epoch": 361,
        "meta_bstar": -0.01374,
        "meta_mean_motion_dot": -0.01850062,
        "meta_mean_motion_ddot": 0,
        "tle_line1": "1 66524U 25265J   25338.16670139 -.01850062  00000+0 -13740-1 0  9996",
        "tle_line2": "2 66524  42.9999 104.7512 0001339 266.5024 314.1266 15.75126964  3617"
      },
      "geometry": {
        "type": "Point",
        "coordinates": [
          137.70407195518126,
          27.936820781547286
        ]
      }
    },
    {
      "type": "Feature",
      "properties": {
        "norad_id": 66525,
        "name": "STARLINK-35975",
        "group": "last-30-days",
        "lat": 29.011428040949006,
        "lon": 139.53551923201624,
        "alt_km": 343.9660175737599,
        "timestamp": "2025-12-04T10:51:48.876406+00:00",
        "meta_object_name": "STARLINK-35975",
        "meta_object_id": "2025-265K",
        "meta_epoch": "2025-12-04T04:00:03.000096",
        "meta_mean_motion": 15.75182343,
        "meta_eccentricity": 0.0001188,
        "meta_inclination": 42.9999,
        "meta_ra_of_asc_node": 104.7469,
        "meta_arg_of_pericenter": 243.5376,
        "meta_mean_anomaly": 339.0123,
        "meta_ephemeris_type": 0,
        "meta_classification_type": "U",
        "meta_norad_cat_id": 66525,
        "meta_element_set_no": 999,
        "meta_rev_at_epoch": 361,
        "meta_bstar": -0.014475,
        "meta_mean_motion_dot": -0.01939417,
        "meta_mean_motion_ddot": 0,
        "tle_line1": "1 66525U 25265K   25338.16670139 -.01939417  00000+0 -14475-1 0  9995",
        "tle_line2": "2 66525  42.9999 104.7469 0001188 243.5376 339.0123 15.75182343  3617"
      },
      "geometry": {
        "type": "Point",
        "coordinates": [
          139.53551923201624,
          29.011428040949006
        ]
      }
    },
    {
      "type": "Feature",
      "properties": {
        "norad_id": 66526,
        "name": "STARLINK-35932",
        "group": "last-30-days",
        "lat": 30.056600187373967,
        "lon": 141.39761657466883,
        "alt_km": 343.87756292340055,
        "timestamp": "2025-12-04T10:51:48.876416+00:00",
        "meta_object_name": "STARLINK-35932",
        "meta_object_id": "2025-265L",
        "meta_epoch": "2025-12-04T04:00:03.000096",
        "meta_mean_motion": 15.75205102,
        "meta_eccentricity": 0.000161,
        "meta_inclination": 42.9998,
        "meta_ra_of_asc_node": 104.7422,
        "meta_arg_of_pericenter": 261.0643,
        "meta_mean_anomaly": 323.3935,
        "meta_ephemeris_type": 0,
        "meta_classification_type": "U",
        "meta_norad_cat_id": 66526,
        "meta_element_set_no": 999,
        "meta_rev_at_epoch": 350,
        "meta_bstar": -0.014677,
        "meta_mean_motion_dot": -0.02006375,
        "meta_mean_motion_ddot": 0,
        "tle_line1": "1 66526U 25265L   25338.16670139 -.02006375  00000+0 -14677-1 0  9999",
        "tle_line2": "2 66526  42.9998 104.7422 0001610 261.0643 323.3935 15.75205102  3502"
      },
      "geometry": {
        "type": "Point",
        "coordinates": [
          141.39761657466883,
          30.056600187373967
        ]
      }
    },
    {
      "type": "Feature",
      "properties": {
        "norad_id": 66527,
        "name": "STARLINK-35935",
        "group": "last-30-days",
        "lat": 31.059473730837663,
        "lon": 143.26917310157728,
        "alt_km": 343.29987438230273,
        "timestamp": "2025-12-04T10:51:48.876429+00:00",
        "meta_object_name": "STARLINK-35935",
        "meta_object_id": "2025-265M",
        "meta_epoch": "2025-12-04T04:00:03.000096",
        "meta_mean_motion": 15.75194264,
        "meta_eccentricity": 6.08e-05,
        "meta_inclination": 42.9999,
        "meta_ra_of_asc_node": 104.7374,
        "meta_arg_of_pericenter": 259.8052,
        "meta_mean_anomaly": 326.5685,
        "meta_ephemeris_type": 0,
        "meta_classification_type": "U",
        "meta_norad_cat_id": 66527,
        "meta_element_set_no": 999,
        "meta_rev_at_epoch": 361,
        "meta_bstar": -0.01456,
        "meta_mean_motion_dot": -0.01949654,
        "meta_mean_motion_ddot": 0,
        "tle_line1": "1 66527U 25265M   25338.16670139 -.01949654  00000+0 -14560-1 0  9996",
        "tle_line2": "2 66527  42.9999 104.7374 0000608 259.8052 326.5685 15.75194264  3610"
      },
      "geometry": {
        "type": "Point",
        "coordinates": [
          143.26917310157728,
          31.059473730837663
        ]
      }
    },
    {
      "type": "Feature",
      "properties": {
        "norad_id": 66528,
        "name": "STARLINK-35928",
        "group": "last-30-days",
        "lat": 32.04705668601605,
        "lon": 145.20520650676437,
        "alt_km": 343.52470827785237,
        "timestamp": "2025-12-04T10:51:48.876439+00:00",
        "meta_object_name": "STARLINK-35928",
        "meta_object_id": "2025-265N",
        "meta_epoch": "2025-12-04T04:00:03.000096",
        "meta_mean_motion": 15.75190217,
        "meta_eccentricity": 0.0001304,
        "meta_inclination": 43,
        "meta_ra_of_asc_node": 104.7326,
        "meta_arg_of_pericenter": 250.6396,
        "meta_mean_anomaly": 337.6564,
        "meta_ephemeris_type": 0,
        "meta_classification_type": "U",
        "meta_norad_cat_id": 66528,
        "meta_element_set_no": 999,
        "meta_rev_at_epoch": 361,
        "meta_bstar": -0.014526,
        "meta_mean_motion_dot": -0.01946088,
        "meta_mean_motion_ddot": 0,
        "tle_line1": "1 66528U 25265N   25338.16670139 -.01946088  00000+0 -14526-1 0  9997",
        "tle_line2": "2 66528  43.0000 104.7326 0001304 250.6396 337.6564 15.75190217  3610"
      },
      "geometry": {
        "type": "Point",
        "coordinates": [
          145.20520650676437,
          32.04705668601605
        ]
      }
    },
    {
      "type": "Feature",
      "properties": {
        "norad_id": 66529,
        "name": "STARLINK-35933",
        "group": "last-30-days",
        "lat": 32.997625832423225,
        "lon": 147.167994407944,
        "alt_km": 343.38975031820155,
        "timestamp": "2025-12-04T10:51:48.876453+00:00",
        "meta_object_name": "STARLINK-35933",
        "meta_object_id": "2025-265P",
        "meta_epoch": "2025-12-04T04:00:03.000096",
        "meta_mean_motion": 15.75201345,
        "meta_eccentricity": 0.000127,
        "meta_inclination": 43,
        "meta_ra_of_asc_node": 104.7272,
        "meta_arg_of_pericenter": 244.7666,
        "meta_mean_anomaly": 345.4349,
        "meta_ephemeris_type": 0,
        "meta_classification_type": "U",
        "meta_norad_cat_id": 66529,
        "meta_element_set_no": 999,
        "meta_rev_at_epoch": 361,
        "meta_bstar": -0.014612,
        "meta_mean_motion_dot": -0.01956777,
        "meta_mean_motion_ddot": 0,
        "tle_line1": "1 66529U 25265P   25338.16670139 -.01956777  00000+0 -14612-1 0  9990",
        "tle_line2": "2 66529  43.0000 104.7272 0001270 244.7666 345.4349 15.75201345  3610"
      },
      "geometry": {
        "type": "Point",
        "coordinates": [
          147.167994407944,
          32.997625832423225
        ]
      }
    }
  ]
}